ONEWEB-0570             
1 55149U 23004K   24114.56328444 -.00000264  00000+0 -70306-3 0  9993
2 55149  87.9108 131.7102 0002892  91.6421 268.5043 13.18679366 66288
ONEWEB-0571             
1 55150U 23004L   24114.55697966  .00000014  00000+0  19721-5 0  9999
2 55150  87.9128 131.7114 0003021 105.6494 254.4971 13.18685355 66296
ONEWEB-0572             
1 55151U 23004M   24114.64372541  .00000082  00000+0  17695-3 0  9990
2 55151  87.9200 161.9970 0002360  95.5196 264.6205 13.17652470 64162
ONEWEB-0573             
1 55152U 23004N   24114.55064172  .00000055  00000+0  10639-3 0  9990
2 55152  87.9124 131.7363 0003045  98.3020 261.8458 13.18685533 66288
ONEWEB-0588             
1 55153U 23004P   24114.54432393  .00000050  00000+0  94011-4 0  9996
2 55153  87.9129 131.7015 0002662  88.9226 271.2211 13.18685796 66288
ONEWEB-0598             
1 55154U 23004Q   24114.67590533 -.00000183  00000+0 -55309-3 0  9997
2 55154  87.9013 177.1373 0002692 110.1447 249.9971 13.11418019 63072
ONEWEB-0599             
1 55155U 23004R   24114.68009843  .00000062  00000+0  12681-3 0  9998
2 55155  87.9209 161.9696 0002106 101.5951 258.5417 13.17650766 64179
ONEWEB-0614             
1 55156U 23004S   24114.67101282 -.00000388  00000+0 -11316-2 0  9994
2 55156  87.9013 177.1409 0002101  87.1506 272.9862 13.11414805 63016
